[Satellite]
VERSION=1.1
NAME=FENGYUN 3D
NICKNAME=FENGYUN 3D
TLE1=1 43010U 17072A   19317.86785636  .00000005  00000-0  23241-4 0  9996
TLE2=2 43010  98.7262 254.9253 0001785  19.4439 340.6814 14.19730528103465
STATUS=0
